start=new Date('2021-09-16T00:00:00.000Z').valueOf();
sats=[{"PERIOD":"95.593","TLE_LINE1":"1 46770U 20074AH  21258.91087509 -.00000897  00000-0 -41346-4 0  9992","COUNTRY_CODE":"US","ELEMENT_SET_NO":"999","BSTAR":"-0.00004134600000","ARG_OF_PERICENTER":"77.7940","RCS_SIZE":"LARGE","APOAPSIS":"548.651","EPOCH":"2021-09-15T21:51:39.607776","FILE":"3116597","NORAD_CAT_ID":"46770","MEAN_MOTION":"15.06389533","TIME_SYSTEM":"UTC","INCLINATION":"53.0539","MEAN_MOTION_DOT":"-0.00000897","MEAN_ELEMENT_THEORY":"SGP4","GP_ID":"184788515","MEAN_ANOMALY":"282.3277","REF_FRAME":"TEME","EPHEMERIS_TYPE":"0","PERIAPSIS":"545.840","MEAN_MOTION_DDOT":"0.0000000000000","OBJECT_ID":"2020-074AH","DECAY_DATE":null,"OBJECT_TYPE":"PAYLOAD","OBJECT_NAME":"STARLINK-1932","CLASSIFICATION_TYPE":"U","LAUNCH_DATE":"2020-10-24","RA_OF_ASC_NODE":"119.9168","ECCENTRICITY":"0.00020300","SEMIMAJOR_AXIS":"6925.381","REV_AT_EPOCH":"4991","TLE_LINE2":"2 46770  53.0539 119.9168 0002030  77.7940 282.3277 15.06389533 49912","SITE":"AFETR","CENTER_NAME":"EARTH"},{"COUNTRY_CODE":"US","TLE_LINE1":"1 46772U 20074AK  21258.89707375 -.00000719  00000-0 -29366-4 0  9992","PERIOD":"95.593","ELEMENT_SET_NO":"999","BSTAR":"-0.00002936600000","ARG_OF_PERICENTER":"79.8678","RCS_SIZE":"LARGE","APOAPSIS":"548.701","EPOCH":"2021-09-15T21:31:47.172000","FILE":"3116597","NORAD_CAT_ID":"46772","TIME_SYSTEM":"UTC","MEAN_MOTION":"15.06393161","INCLINATION":"53.0537","MEAN_MOTION_DOT":"-0.00000719","MEAN_ELEMENT_THEORY":"SGP4","GP_ID":"184787266","REF_FRAME":"TEME","MEAN_ANOMALY":"280.2550","EPHEMERIS_TYPE":"0","PERIAPSIS":"545.768","MEAN_MOTION_DDOT":"0.0000000000000","DECAY_DATE":null,"OBJECT_ID":"2020-074AK","OBJECT_TYPE":"PAYLOAD","OBJECT_NAME":"STARLINK-1936","CLASSIFICATION_TYPE":"U","LAUNCH_DATE":"2020-10-24","RA_OF_ASC_NODE":"119.9858","ECCENTRICITY":"0.00021170","REV_AT_EPOCH":"4991","SEMIMAJOR_AXIS":"6925.370","TLE_LINE2":"2 46772  53.0537 119.9858 0002117  79.8678 280.2550 15.06393161 49918","SITE":"AFETR","CENTER_NAME":"EARTH"},{"OBJECT_TYPE":"PAYLOAD","OBJECT_ID":"2020-074AM","DECAY_DATE":null,"MEAN_MOTION_DDOT":"0.0000000000000","SEMIMAJOR_AXIS":"6921.817","REV_AT_EPOCH":"4993","SITE":"AFETR","CENTER_NAME":"EARTH","TLE_LINE2":"2 46774  53.0533 119.1722 0002097  84.0571 276.0658 15.07553122 49935","OBJECT_NAME":"STARLINK-1939","CLASSIFICATION_TYPE":"U","ECCENTRICITY":"0.00020970","LAUNCH_DATE":"2020-10-24","RA_OF_ASC_NODE":"119.1722","RCS_SIZE":"LARGE","APOAPSIS":"545.133","TLE_LINE1":"1 46774U 20074AM  21258.91735022  .00002782  00000-0  19950-3 0  9994","COUNTRY_CODE":"US","PERIOD":"95.519","ARG_OF_PERICENTER":"84.0571","ELEMENT_SET_NO":"999","BSTAR":"0.00019950000000","MEAN_MOTION_DOT":"0.00002782","MEAN_ELEMENT_THEORY":"SGP4","EPHEMERIS_TYPE":"0","PERIAPSIS":"542.230","GP_ID":"184788016","MEAN_ANOMALY":"276.0658","REF_FRAME":"TEME","EPOCH":"2021-09-15T22:00:59.059008","TIME_SYSTEM":"UTC","NORAD_CAT_ID":"46774","MEAN_MOTION":"15.07553122","INCLINATION":"53.0533","FILE":"3116597"},{"RCS_SIZE":"LARGE","APOAPSIS":"548.579","PERIOD":"95.593","TLE_LINE1":"1 46775U 20074AN  21258.93394736  .00001699  00000-0  13300-3 0  9999","COUNTRY_CODE":"US","BSTAR":"0.00013300000000","ELEMENT_SET_NO":"999","ARG_OF_PERICENTER":"74.3186","MEAN_ELEMENT_THEORY":"SGP4","MEAN_MOTION_DOT":"0.00001699","GP_ID":"184788768","MEAN_ANOMALY":"285.8011","REF_FRAME":"TEME","PERIAPSIS":"545.963","EPHEMERIS_TYPE":"0","EPOCH":"2021-09-15T22:24:53.051904","FILE":"3116597","INCLINATION":"53.0557","TIME_SYSTEM":"UTC","NORAD_CAT_ID":"46775","MEAN_MOTION":"15.06381302","OBJECT_TYPE":"PAYLOAD","MEAN_MOTION_DDOT":"0.0000000000000","OBJECT_ID":"2020-074AN","DECAY_DATE":null,"SEMIMAJOR_AXIS":"6925.406","REV_AT_EPOCH":"4991","TLE_LINE2":"2 46775  53.0557 119.8127 0001889  74.3186 285.8011 15.06381302 49917","CENTER_NAME":"EARTH","SITE":"AFETR","OBJECT_NAME":"STARLINK-1945","CLASSIFICATION_TYPE":"U","RA_OF_ASC_NODE":"119.8127","LAUNCH_DATE":"2020-10-24","ECCENTRICITY":"0.00018890"},{"ARG_OF_PERICENTER":"78.7789","BSTAR":"-0.00003185300000","ELEMENT_SET_NO":"999","COUNTRY_CODE":"US","TLE_LINE1":"1 46776U 20074AP  21258.91181411 -.00000756  00000-0 -31853-4 0  9991","PERIOD":"95.592","APOAPSIS":"548.605","RCS_SIZE":"LARGE","INCLINATION":"53.0540","NORAD_CAT_ID":"46776","MEAN_MOTION":"15.06397376","TIME_SYSTEM":"UTC","FILE":"3116597","EPOCH":"2021-09-15T21:53:00.739104","PERIAPSIS":"545.838","EPHEMERIS_TYPE":"0","REF_FRAME":"TEME","GP_ID":"184789016","MEAN_ANOMALY":"281.3424","MEAN_ELEMENT_THEORY":"SGP4","MEAN_MOTION_DOT":"-0.00000756","DECAY_DATE":null,"OBJECT_ID":"2020-074AP","MEAN_MOTION_DDOT":"0.0000000000000","OBJECT_TYPE":"PAYLOAD","ECCENTRICITY":"0.00019980","RA_OF_ASC_NODE":"119.9108","LAUNCH_DATE":"2020-10-24","OBJECT_NAME":"STARLINK-1946","CLASSIFICATION_TYPE":"U","CENTER_NAME":"EARTH","SITE":"AFETR","TLE_LINE2":"2 46776  53.0540 119.9108 0001998  78.7789 281.3424 15.06397376 49915","REV_AT_EPOCH":"4991","SEMIMAJOR_AXIS":"6925.357"},{"MEAN_ELEMENT_THEORY":"SGP4","MEAN_MOTION_DOT":"-0.00014313","PERIAPSIS":"294.382","EPHEMERIS_TYPE":"0","MEAN_ANOMALY":"83.6468","GP_ID":"184787767","REF_FRAME":"TEME","EPOCH":"2021-09-15T18:48:36.311904","INCLINATION":"53.0490","NORAD_CAT_ID":"46777","TIME_SYSTEM":"UTC","MEAN_MOTION":"15.90880317","FILE":"3116597","RCS_SIZE":"LARGE","APOAPSIS":"305.259","TLE_LINE1":"1 46777U 20074AQ  21258.78375361 -.00014313  11091-4 -33588-4 0  9993","COUNTRY_CODE":"US","PERIOD":"90.516","ARG_OF_PERICENTER":"276.3630","BSTAR":"-0.00003358800000","ELEMENT_SET_NO":"999","REV_AT_EPOCH":"5060","SEMIMAJOR_AXIS":"6677.955","CENTER_NAME":"EARTH","SITE":"AFETR","TLE_LINE2":"2 46777  53.0490  70.4879 0008144 276.3630  83.6468 15.90880317 50601","CLASSIFICATION_TYPE":"U","OBJECT_NAME":"STARLINK-1949","ECCENTRICITY":"0.00081440","LAUNCH_DATE":"2020-10-24","RA_OF_ASC_NODE":"70.4879","OBJECT_TYPE":"PAYLOAD","OBJECT_ID":"2020-074AQ","DECAY_DATE":null,"MEAN_MOTION_DDOT":"0.0000110910000"},{"SITE":"AFETR","CENTER_NAME":"EARTH","TLE_LINE2":"2 46779  53.0545  94.8366 0001920  84.9052 275.2157 15.06398455 50261","REV_AT_EPOCH":"5026","SEMIMAJOR_AXIS":"6925.353","ECCENTRICITY":"0.00019200","LAUNCH_DATE":"2020-10-24","RA_OF_ASC_NODE":"94.8366","OBJECT_NAME":"STARLINK-1798","CLASSIFICATION_TYPE":"U","OBJECT_TYPE":"PAYLOAD","DECAY_DATE":null,"OBJECT_ID":"2020-074AS","MEAN_MOTION_DDOT":"0.0000000000000","EPHEMERIS_TYPE":"0","PERIAPSIS":"545.889","GP_ID":"184787516","REF_FRAME":"TEME","MEAN_ANOMALY":"275.2157","MEAN_MOTION_DOT":"0.00001200","MEAN_ELEMENT_THEORY":"SGP4","NORAD_CAT_ID":"46779","MEAN_MOTION":"15.06398455","TIME_SYSTEM":"UTC","INCLINATION":"53.0545","FILE":"3116597","EPOCH":"2021-09-15T22:14:54.190176","APOAPSIS":"548.548","RCS_SIZE":"LARGE","ARG_OF_PERICENTER":"84.9052","ELEMENT_SET_NO":"999","BSTAR":"0.00009943200000","COUNTRY_CODE":"US","TLE_LINE1":"1 46779U 20074AS  21258.92701609  .00001200  00000-0  99432-4 0  9992","PERIOD":"95.592"},{"LAUNCH_DATE":"2020-10-24","RA_OF_ASC_NODE":"95.1846","ECCENTRICITY":"0.00019490","CLASSIFICATION_TYPE":"U","OBJECT_NAME":"STARLINK-1832","TLE_LINE2":"2 46780  53.0550  95.1846 0001949  80.4521 279.6688 15.06387555 50254","SITE":"AFETR","CENTER_NAME":"EARTH","SEMIMAJOR_AXIS":"6925.387","REV_AT_EPOCH":"5025","MEAN_MOTION_DDOT":"0.0000000000000","OBJECT_ID":"2020-074AT","DECAY_DATE":null,"OBJECT_TYPE":"PAYLOAD","FILE":"3116597","MEAN_MOTION":"15.06387555","NORAD_CAT_ID":"46780","TIME_SYSTEM":"UTC","INCLINATION":"53.0550","EPOCH":"2021-09-15T20:23:27.304512","GP_ID":"184788268","REF_FRAME":"TEME","MEAN_ANOMALY":"279.6688","EPHEMERIS_TYPE":"0","PERIAPSIS":"545.902","MEAN_MOTION_DOT":"-0.00000829","MEAN_ELEMENT_THEORY":"SGP4","ELEMENT_SET_NO":"999","BSTAR":"-0.00003675200000","ARG_OF_PERICENTER":"80.4521","PERIOD":"95.593","TLE_LINE1":"1 46780U 20074AT  21258.84962158 -.00000829  00000-0 -36752-4 0  9997","COUNTRY_CODE":"US","APOAPSIS":"548.601","RCS_SIZE":"LARGE"},{"ECCENTRICITY":"0.00019110","LAUNCH_DATE":"2020-10-24","RA_OF_ASC_NODE":"105.1163","OBJECT_NAME":"STARLINK-1834","CLASSIFICATION_TYPE":"U","SITE":"AFETR","CENTER_NAME":"EARTH","TLE_LINE2":"2 46781  53.0545 105.1163 0001911  88.7705 271.3503 15.06396398 50123","SEMIMAJOR_AXIS":"6925.360","REV_AT_EPOCH":"5012","OBJECT_ID":"2020-074AU","DECAY_DATE":null,"MEAN_MOTION_DDOT":"0.0000000000000","OBJECT_TYPE":"PAYLOAD","TIME_SYSTEM":"UTC","NORAD_CAT_ID":"46781","MEAN_MOTION":"15.06396398","INCLINATION":"53.0545","FILE":"3116597","EPOCH":"2021-09-15T20:48:39.627648","EPHEMERIS_TYPE":"0","PERIAPSIS":"545.901","GP_ID":"184788516","MEAN_ANOMALY":"271.3503","REF_FRAME":"TEME","MEAN_MOTION_DOT":"-0.00000758","MEAN_ELEMENT_THEORY":"SGP4","ARG_OF_PERICENTER":"88.7705","ELEMENT_SET_NO":"999","BSTAR":"-0.00003196300000","PERIOD":"95.592","TLE_LINE1":"1 46781U 20074AU  21258.86712532 -.00000758  00000-0 -31963-4 0  9999","COUNTRY_CODE":"US","APOAPSIS":"548.548","RCS_SIZE":"LARGE"},{"OBJECT_ID":"2020-074AV","DECAY_DATE":null,"MEAN_MOTION_DDOT":"0.0000000000000","OBJECT_TYPE":"PAYLOAD","CLASSIFICATION_TYPE":"U","OBJECT_NAME":"STARLINK-1835","ECCENTRICITY":"0.00021390","LAUNCH_DATE":"2020-10-24","RA_OF_ASC_NODE":"95.2522","REV_AT_EPOCH":"5025","SEMIMAJOR_AXIS":"6925.366","SITE":"AFETR","CENTER_NAME":"EARTH","TLE_LINE2":"2 46782  53.0554  95.2522 0002139  85.1483 274.9750 15.06394182 50255","PERIOD":"95.593","TLE_LINE1":"1 46782U 20074AV  21258.83855669  .00001019  00000-0  87303-4 0  9994","COUNTRY_CODE":"US","ARG_OF_PERICENTER":"85.1483","ELEMENT_SET_NO":"999","BSTAR":"0.00008730300000","RCS_SIZE":"LARGE","APOAPSIS":"548.713","EPOCH":"2021-09-15T20:07:31.298016","TIME_SYSTEM":"UTC","NORAD_CAT_ID":"46782","MEAN_MOTION":"15.06394182","INCLINATION":"53.0554","FILE":"3116597","MEAN_MOTION_DOT":"0.00001019","MEAN_ELEMENT_THEORY":"SGP4","EPHEMERIS_TYPE":"0","PERIAPSIS":"545.750","GP_ID":"184787267","MEAN_ANOMALY":"274.9750","REF_FRAME":"TEME"}];
